ONEWEB-0716             
1 55177U 23004AP  25104.38546619  .00000097  00000+0  21633-3 0  9991
2 55177  87.9011  91.2806 0002093  81.6651 278.4718 13.17651320111111
ONEWEB-0717             
1 55178U 23004AQ  25103.91299051  .00000033  00000+0  52279-4 0  9996
2 55178  87.9012  91.3346 0002316 107.5925 252.5459 13.17647231111103
ONEWEB-0719             
1 55179U 23004AR  25103.69531162  .00000013  00000+0  96576-6 0  9992
2 55179  87.9009  91.3627 0002189  84.2540 275.8841 13.17647772111028
ONEWEB-0530             
1 55796U 23029A   25103.70095559  .00000019  00000+0  15766-4 0  9997
2 55796  87.9327 359.9844 0002260  91.7158 268.4234 13.20773682105164
ONEWEB-0534             
1 55797U 23029B   25104.74892449  .00000053  00000+0  97889-4 0  9990
2 55797  87.9326 359.7841 0001886  76.8527 283.2817 13.20773002105287
ONEWEB-0556             
1 55798U 23029C   25104.14919204  .00000051  00000+0  93036-4 0  9992
2 55798  87.9326 359.8953 0002662  77.9204 282.2227 13.20771646105208
ONEWEB-0562             
1 55799U 23029D   25104.74262294  .00000071  00000+0  14233-3 0  9992
2 55799  87.9327 359.7702 0002750  89.7447 270.4001 13.20771399105270
ONEWEB-0563             
1 55800U 23029E   25104.73630702  .00000113  00000+0  24491-3 0  9991
2 55800  87.9326 359.7860 0001863  70.0710 290.0624 13.20772092105266
